{
  "norad_id": 56781,
  "name": "STARLINK-5989",
  "history": [
    {
      "epoch": "2026-05-02T09:35:59.195616Z",
      "apogee_km": 574.2103816960162,
      "perigee_km": 569.8998725387773,
      "latitude_deg": 3.09814402923162e-05,
      "longitude_deg": -155.20931430415547,
      "height_km": 574.4835567733257,
      "semi_major_axis_km": 6950.192127117396,
      "eccentricity": 0.0003101,
      "inclination_deg": 70.0006,
      "raan_deg": 209.1059,
      "arg_perigee_deg": 269.9778,
      "mean_anomaly_deg": 90.1026,
      "mean_motion_rev_day": 14.98330247
    },
    {
      "epoch": "2026-05-03T14:26:24.199008Z",
      "apogee_km": 574.0049647366332,
      "perigee_km": 570.096179246144,
      "latitude_deg": 7.64117201182619e-06,
      "longitude_deg": 127.97286513948909,
      "height_km": 574.6383312245111,
      "semi_major_axis_km": 6950.187571991388,
      "eccentricity": 0.0002812,
      "inclination_deg": 70.0012,
      "raan_deg": 206.0767,
      "arg_perigee_deg": 265.2926,
      "mean_anomaly_deg": 94.7912,
      "mean_motion_rev_day": 14.9833172
    },
    {
      "epoch": "2026-05-04T12:52:17.120928Z",
      "apogee_km": 573.9586646990692,
      "perigee_km": 570.1388426088615,
      "latitude_deg": -6.529966207378426e-05,
      "longitude_deg": 148.22270410759617,
      "height_km": 574.8307099615429,
      "semi_major_axis_km": 6950.185753653966,
      "eccentricity": 0.0002748,
      "inclination_deg": 70.0014,
      "raan_deg": 203.7183,
      "arg_perigee_deg": 259.2989,
      "mean_anomaly_deg": 100.786,
      "mean_motion_rev_day": 14.98332308
    },
    {
      "epoch": "2026-05-05T14:30:26.138016Z",
      "apogee_km": 574.1140557594472,
      "perigee_km": 569.9620211914607,
      "latitude_deg": 6.1873959661496794e-06,
      "longitude_deg": 119.93932833523398,
      "height_km": 574.5320387780106,
      "semi_major_axis_km": 6950.175038475453,
      "eccentricity": 0.0002987,
      "inclination_deg": 70.0013,
      "raan_deg": 201.0253,
      "arg_perigee_deg": 268.1657,
      "mean_anomaly_deg": 91.916,
      "mean_motion_rev_day": 14.98335773
    },
    {
      "epoch": "2026-05-06T11:20:10.991616Z",
      "apogee_km": 574.1499204942011,
      "perigee_km": 569.9571485523447,
      "latitude_deg": 6.659429312270178e-06,
      "longitude_deg": 164.460113370626,
      "height_km": 574.596118273615,
      "semi_major_axis_km": 6950.190534523273,
      "eccentricity": 0.00030163,
      "inclination_deg": 70.0011,
      "raan_deg": 198.8384,
      "arg_perigee_deg": 266.8548,
      "mean_anomaly_deg": 93.2266,
      "mean_motion_rev_day": 14.98330762
    },
    {
      "epoch": "2026-05-07T12:58:20.064000Z",
      "apogee_km": 574.3052184639218,
      "perigee_km": 569.8209493697786,
      "latitude_deg": -3.6334642776063795e-05,
      "longitude_deg": 136.1766652362403,
      "height_km": 574.52141933216,
      "semi_major_axis_km": 6950.2000839168495,
      "eccentricity": 0.0003226,
      "inclination_deg": 70.0,
      "raan_deg": 196.1456,
      "arg_perigee_deg": 269.2166,
      "mean_anomaly_deg": 90.8623,
      "mean_motion_rev_day": 14.98327674
    },
    {
      "epoch": "2026-05-08T13:00:20.581632Z",
      "apogee_km": 574.380218321694,
      "perigee_km": 569.7110856161007,
      "latitude_deg": -1.1041023534623118e-05,
      "longitude_deg": 132.16249464311917,
      "height_km": 574.4489098253205,
      "semi_major_axis_km": 6950.182651968897,
      "eccentricity": 0.0003359,
      "inclination_deg": 69.9995,
      "raan_deg": 193.6206,
      "arg_perigee_deg": 270.6015,
      "mean_anomaly_deg": 89.4759,
      "mean_motion_rev_day": 14.98333311
    },
    {
      "epoch": "2026-05-09T14:38:29.829408Z",
      "apogee_km": 574.3486410243504,
      "perigee_km": 569.7615142531085,
      "latitude_deg": 1.2525486906399193e-05,
      "longitude_deg": 103.8785391910284,
      "height_km": 574.493223025295,
      "semi_major_axis_km": 6950.19207763873,
      "eccentricity": 0.00033,
      "inclination_deg": 69.9996,
      "raan_deg": 190.928,
      "arg_perigee_deg": 269.7395,
      "mean_anomaly_deg": 90.3386,
      "mean_motion_rev_day": 14.98330263
    },
    {
      "epoch": "2026-05-10T13:04:22.771200Z",
      "apogee_km": 574.3678406314584,
      "perigee_km": 569.7445721105814,
      "latitude_deg": 6.0003320354373555e-06,
      "longitude_deg": 124.13022096697607,
      "height_km": 574.5206468850226,
      "semi_major_axis_km": 6950.19320637102,
      "eccentricity": 0.0003326,
      "inclination_deg": 69.9994,
      "raan_deg": 188.5715,
      "arg_perigee_deg": 269.0901,
      "mean_anomaly_deg": 90.9877,
      "mean_motion_rev_day": 14.98329898
    },
    {
      "epoch": "2026-05-11T08:17:59.413920Z",
      "apogee_km": 574.3713217234008,
      "perigee_km": 569.7173413001938,
      "latitude_deg": 6.12800096407226e-05,
      "longitude_deg": -167.08205599677677,
      "height_km": 574.4797816509573,
      "semi_major_axis_km": 6950.181331511797,
      "eccentricity": 0.00033481,
      "inclination_deg": 69.9992,
      "raan_deg": 186.5515,
      "arg_perigee_deg": 269.81,
      "mean_anomaly_deg": 90.2676,
      "mean_motion_rev_day": 14.98333738
    },
    {
      "epoch": "2026-05-12T09:56:08.584800Z",
      "apogee_km": 574.4581497389299,
      "perigee_km": 569.6625135800841,
      "latitude_deg": 2.6689243046214795e-05,
      "longitude_deg": 164.63369140475143,
      "height_km": 574.523093471692,
      "semi_major_axis_km": 6950.197331659507,
      "eccentricity": 0.000345,
      "inclination_deg": 69.9991,
      "raan_deg": 183.8583,
      "arg_perigee_deg": 269.1651,
      "mean_anomaly_deg": 90.9113,
      "mean_motion_rev_day": 14.98328564
    },
    {
      "epoch": "2026-05-13T11:34:17.533632Z",
      "apogee_km": 574.478761197458,
      "perigee_km": 569.6316971368369,
      "latitude_deg": 4.819625448135761e-05,
      "longitude_deg": 136.35058732667565,
      "height_km": 574.5229538697687,
      "semi_major_axis_km": 6950.192229167147,
      "eccentricity": 0.0003487,
      "inclination_deg": 69.9989,
      "raan_deg": 181.1653,
      "arg_perigee_deg": 269.0571,
      "mean_anomaly_deg": 91.0189,
      "mean_motion_rev_day": 14.98330214
    },
    {
      "epoch": "2026-05-14T06:47:54.175488Z",
      "apogee_km": 574.4781504190496,
      "perigee_km": 569.6228884217335,
      "latitude_deg": 1.566934683263829e-05,
      "longitude_deg": -154.86151691582074,
      "height_km": 574.5245721658769,
      "semi_major_axis_km": 6950.187519420391,
      "eccentricity": 0.00034929,
      "inclination_deg": 69.9988,
      "raan_deg": 179.1455,
      "arg_perigee_deg": 268.9094,
      "mean_anomaly_deg": 91.1665,
      "mean_motion_rev_day": 14.98331737
    },
    {
      "epoch": "2026-05-15T06:49:54.941952Z",
      "apogee_km": 574.4665870079743,
      "perigee_km": 569.6262012849556,
      "latitude_deg": -4.813307650137202e-06,
      "longitude_deg": -158.8765406841306,
      "height_km": 574.5170196014172,
      "semi_major_axis_km": 6950.183394146465,
      "eccentricity": 0.00034822,
      "inclination_deg": 69.9989,
      "raan_deg": 176.6207,
      "arg_perigee_deg": 268.9872,
      "mean_anomaly_deg": 91.0888,
      "mean_motion_rev_day": 14.98333071
    }
  ]
}